STARLINK-30578          
1 58093U 23160U   26068.07673560  .00000092  00000+0  12838-4 0  9999
2 58093  42.9954  81.1972 0000183 304.4058  55.6776 15.27576979132857
NUSAT-50 (NANCY ROMAN)  
1 60493U 24149AB  26068.80227738  .00012094  00000+0  42252-3 0  9994
2 60493  97.3817 150.7693 0002523 238.0469 122.0527 15.29713355 86930
